{
  "type": "FeatureCollection",
  "features": [
    {
      "type": "Feature",
      "properties": {
        "norad_id": 30656,
        "name": "FENGYUN 1C DEB",
        "group": "fengyun-1c-debris",
        "lat": -1.5247147200457483,
        "lon": 171.56732783759227,
        "alt_km": 732.1692528793674,
        "timestamp": "2025-12-22T14:45:57.680464+00:00",
        "meta_object_name": "FENGYUN 1C DEB",
        "meta_object_id": "1999-025APN",
        "meta_epoch": "2025-12-22T03:08:38.481216",
        "meta_mean_motion": 14.454712,
        "meta_eccentricity": 0.00301199,
        "meta_inclination": 99.0179,
        "meta_ra_of_asc_node": 170.811,
        "meta_arg_of_pericenter": 57.9904,
        "meta_mean_anomaly": 302.4207,
        "meta_ephemeris_type": 0,
        "meta_classification_type": "U",
        "meta_norad_cat_id": 30656,
        "meta_element_set_no": 999,
        "meta_rev_at_epoch": 97221,
        "meta_bstar": 0.0024480405,
        "meta_mean_motion_dot": 8.634e-05,
        "meta_mean_motion_ddot": 0,
        "tle_line1": "1 30656U 99025APN 25356.13100094  .00008634  00000+0  24480-2 0  9994",
        "tle_line2": "2 30656  99.0179 170.8110 0030119  57.9904 302.4207 14.45471200972210"
      },
      "geometry": {
        "type": "Point",
        "coordinates": [
          171.56732783759227,
          -1.5247147200457483
        ]
      }
    },
    {
      "type": "Feature",
      "properties": {
        "norad_id": 30657,
        "name": "FENGYUN 1C DEB",
        "group": "fengyun-1c-debris",
        "lat": -54.54755844343236,
        "lon": -97.68267777608887,
        "alt_km": 767.2656827930577,
        "timestamp": "2025-12-22T14:45:57.680475+00:00",
        "meta_object_name": "FENGYUN 1C DEB",
        "meta_object_id": "1999-025APP",
        "meta_epoch": "2025-12-22T05:25:29.962272",
        "meta_mean_motion": 14.38707271,
        "meta_eccentricity": 0.00162493,
        "meta_inclination": 98.8361,
        "meta_ra_of_asc_node": 94.5355,
        "meta_arg_of_pericenter": 314.359,
        "meta_mean_anomaly": 66.5734,
        "meta_ephemeris_type": 0,
        "meta_classification_type": "U",
        "meta_norad_cat_id": 30657,
        "meta_element_set_no": 999,
        "meta_rev_at_epoch": 97369,
        "meta_bstar": 0.0021018714,
        "meta_mean_motion_dot": 6.417e-05,
        "meta_mean_motion_ddot": 0,
        "tle_line1": "1 30657U 99025APP 25356.22604123  .00006417  00000+0  21019-2 0  9999",
        "tle_line2": "2 30657  98.8361  94.5355 0016249 314.3590  66.5734 14.38707271973691"
      },
      "geometry": {
        "type": "Point",
        "coordinates": [
          -97.68267777608887,
          -54.54755844343236
        ]
      }
    },
    {
      "type": "Feature",
      "properties": {
        "norad_id": 30658,
        "name": "FENGYUN 1C DEB",
        "group": "fengyun-1c-debris",
        "lat": 81.00487343152834,
        "lon": -41.58059395610095,
        "alt_km": 982.8893280276361,
        "timestamp": "2025-12-22T14:45:57.680485+00:00",
        "meta_object_name": "FENGYUN 1C DEB",
        "meta_object_id": "1999-025APQ",
        "meta_epoch": "2025-12-18T13:23:50.214912",
        "meta_mean_motion": 13.87228138,
        "meta_eccentricity": 0.01842986,
        "meta_inclination": 98.4389,
        "meta_ra_of_asc_node": 24.4397,
        "meta_arg_of_pericenter": 211.7114,
        "meta_mean_anomaly": 147.2839,
        "meta_ephemeris_type": 0,
        "meta_classification_type": "U",
        "meta_norad_cat_id": 30658,
        "meta_element_set_no": 999,
        "meta_rev_at_epoch": 94765,
        "meta_bstar": 0.001331943,
        "meta_mean_motion_dot": 1.751e-05,
        "meta_mean_motion_ddot": 0,
        "tle_line1": "1 30658U 99025APQ 25352.55822008  .00001751  00000+0  13319-2 0  9996",
        "tle_line2": "2 30658  98.4389  24.4397 0184298 211.7114 147.2839 13.87228138947651"
      },
      "geometry": {
        "type": "Point",
        "coordinates": [
          -41.58059395610095,
          81.00487343152834
        ]
      }
    },
    {
      "type": "Feature",
      "properties": {
        "norad_id": 30660,
        "name": "FENGYUN 1C DEB",
        "group": "fengyun-1c-debris",
        "lat": 33.15175048893876,
        "lon": -81.30568818336843,
        "alt_km": 689.9506231768082,
        "timestamp": "2025-12-22T14:45:57.680495+00:00",
        "meta_object_name": "FENGYUN 1C DEB",
        "meta_object_id": "1999-025APS",
        "meta_epoch": "2025-12-22T06:17:55.599648",
        "meta_mean_motion": 14.87642122,
        "meta_eccentricity": 0.01364662,
        "meta_inclination": 98.1391,
        "meta_ra_of_asc_node": 92.9686,
        "meta_arg_of_pericenter": 303.2487,
        "meta_mean_anomaly": 115.486,
        "meta_ephemeris_type": 0,
        "meta_classification_type": "U",
        "meta_norad_cat_id": 30660,
        "meta_element_set_no": 999,
        "meta_rev_at_epoch": 926,
        "meta_bstar": 0.00055010607,
        "meta_mean_motion_dot": 5.876e-05,
        "meta_mean_motion_ddot": 0,
        "tle_line1": "1 30660U 99025APS 25356.26244907  .00005876  00000+0  55011-3 0  9995",
        "tle_line2": "2 30660  98.1391  92.9686 0136466 303.2487 115.4860 14.87642122  9260"
      },
      "geometry": {
        "type": "Point",
        "coordinates": [
          -81.30568818336843,
          33.15175048893876
        ]
      }
    },
    {
      "type": "Feature",
      "properties": {
        "norad_id": 30661,
        "name": "FENGYUN 1C DEB",
        "group": "fengyun-1c-debris",
        "lat": -1.70175960586315,
        "lon": 173.30759020471476,
        "alt_km": 726.3543727473116,
        "timestamp": "2025-12-22T14:45:57.680506+00:00",
        "meta_object_name": "FENGYUN 1C DEB",
        "meta_object_id": "1999-025APT",
        "meta_epoch": "2025-12-21T18:29:51.790848",
        "meta_mean_motion": 14.21147338,
        "meta_eccentricity": 0.01444369,
        "meta_inclination": 99.487,
        "meta_ra_of_asc_node": 172.1163,
        "meta_arg_of_pericenter": 20.2352,
        "meta_mean_anomaly": 340.4468,
        "meta_ephemeris_type": 0,
        "meta_classification_type": "U",
        "meta_norad_cat_id": 30661,
        "meta_element_set_no": 999,
        "meta_rev_at_epoch": 98030,
        "meta_bstar": 9.859484e-05,
        "meta_mean_motion_dot": 1.88e-06,
        "meta_mean_motion_ddot": 0,
        "tle_line1": "1 30661U 99025APT 25355.77073832  .00000188  00000+0  98595-4 0  9994",
        "tle_line2": "2 30661  99.4870 172.1163 0144436  20.2352 340.4468 14.21147338980305"
      },
      "geometry": {
        "type": "Point",
        "coordinates": [
          173.30759020471476,
          -1.70175960586315
        ]
      }
    },
    {
      "type": "Feature",
      "properties": {
        "norad_id": 30662,
        "name": "FENGYUN 1C DEB",
        "group": "fengyun-1c-debris",
        "lat": 80.91943890966225,
        "lon": -40.798020893657444,
        "alt_km": 831.3156874924307,
        "timestamp": "2025-12-22T14:45:57.680516+00:00",
        "meta_object_name": "FENGYUN 1C DEB",
        "meta_object_id": "1999-025APU",
        "meta_epoch": "2025-12-22T02:49:55.550784",
        "meta_mean_motion": 14.2241414,
        "meta_eccentricity": 0.0033879,
        "meta_inclination": 99.0536,
        "meta_ra_of_asc_node": 52.6474,
        "meta_arg_of_pericenter": 244.4355,
        "meta_mean_anomaly": 181.5403,
        "meta_ephemeris_type": 0,
        "meta_classification_type": "U",
        "meta_norad_cat_id": 30662,
        "meta_element_set_no": 999,
        "meta_rev_at_epoch": 96772,
        "meta_bstar": 0.001435741,
        "meta_mean_motion_dot": 3.17e-05,
        "meta_mean_motion_ddot": 0,
        "tle_line1": "1 30662U 99025APU 25356.11800406  .00003170  00000+0  14357-2 0  9995",
        "tle_line2": "2 30662  99.0536  52.6474 0033879 244.4355 181.5403 14.22414140967722"
      },
      "geometry": {
        "type": "Point",
        "coordinates": [
          -40.798020893657444,
          80.91943890966225
        ]
      }
    },
    {
      "type": "Feature",
      "properties": {
        "norad_id": 30663,
        "name": "FENGYUN 1C DEB",
        "group": "fengyun-1c-debris",
        "lat": 34.44395330943254,
        "lon": -93.88538994792788,
        "alt_km": 1034.4370807392843,
        "timestamp": "2025-12-22T14:45:57.680527+00:00",
        "meta_object_name": "FENGYUN 1C DEB",
        "meta_object_id": "1999-025APV",
        "meta_epoch": "2025-12-21T05:55:22.649952",
        "meta_mean_motion": 13.23177747,
        "meta_eccentricity": 0.06489491,
        "meta_inclination": 99.3037,
        "meta_ra_of_asc_node": 271.3398,
        "meta_arg_of_pericenter": 115.8939,
        "meta_mean_anomaly": 251.0538,
        "meta_ephemeris_type": 0,
        "meta_classification_type": "U",
        "meta_norad_cat_id": 30663,
        "meta_element_set_no": 999,
        "meta_rev_at_epoch": 89160,
        "meta_bstar": 0.0021646466,
        "meta_mean_motion_dot": 2.804e-05,
        "meta_mean_motion_ddot": 0,
        "tle_line1": "1 30663U 99025APV 25355.24678993  .00002804  00000+0  21646-2 0  9995",
        "tle_line2": "2 30663  99.3037 271.3398 0648949 115.8939 251.0538 13.23177747891600"
      },
      "geometry": {
        "type": "Point",
        "coordinates": [
          -93.88538994792788,
          34.44395330943254
        ]
      }
    }
  ]
}